[
  {
    "province": "Alajuela",
    "canton": "Alajuela",
    "district": "Alajuela",
    "postal_code": "20101"
  },
  {
    "province": "Alajuela",
    "canton": "Alajuela",
    "district": "Carrizal",
    "postal_code": "20103"
  },
  {
    "province": "Alajuela",
    "canton": "Alajuela",
    "district": "Desamparados",
    "postal_code": "20110"
  },
  {
    "province": "Alajuela",
    "canton": "Alajuela",
    "district": "Garita",
    "postal_code": "20113"
  },
  {
    "province": "Alajuela",
    "canton": "Alajuela",
    "district": "Guacima",
    "postal_code": "20105"
  },
  {
    "province": "Alajuela",
    "canton": "Alajuela",
    "district": "Río Segundo",
    "postal_code": "20109"
  },
  {
    "province": "Alajuela",
    "canton": "Alajuela",
    "district": "Sabanilla",
    "postal_code": "20107"
  },
  {
    "province": "Alajuela",
    "canton": "Alajuela",
    "district": "San Antonio",
    "postal_code": "20104"
  },
  {
    "province": "Alajuela",
    "canton": "Alajuela",
    "district": "San Isidro",
    "postal_code": "20106"
  },
  {
    "province": "Alajuela",
    "canton": "Alajuela",
    "district": "San José",
    "postal_code": "20102"
  },
  {
    "province": "Alajuela",
    "canton": "Alajuela",
    "district": "San Rafael",
    "postal_code": "20108"
  },
  {
    "province": "Alajuela",
    "canton": "Alajuela",
    "district": "Sarapiquí",
    "postal_code": "20114"
  },
  {
    "province": "Alajuela",
    "canton": "Alajuela",
    "district": "Tambor",
    "postal_code": "20112"
  },
  {
    "province": "Alajuela",
    "canton": "Alajuela",
    "district": "Turrucares",
    "postal_code": "20111"
  },
  {
    "province": "Alajuela",
    "canton": "Alfaro Ruiz",
    "district": "Brisas",
    "postal_code": "21107"
  },
  {
    "province": "Alajuela",
    "canton": "Alfaro Ruiz",
    "district": "Guadalupe",
    "postal_code": "21104"
  },
  {
    "province": "Alajuela",
    "canton": "Alfaro Ruiz",
    "district": "Laguna",
    "postal_code": "21102"
  },
  {
    "province": "Alajuela",
    "canton": "Alfaro Ruiz",
    "district": "Palmira",
    "postal_code": "21105"
  },
  {
    "province": "Alajuela",
    "canton": "Alfaro Ruiz",
    "district": "Tapezco",
    "postal_code": "21103"
  },
  {
    "province": "Alajuela",
    "canton": "Alfaro Ruiz",
    "district": "Zapote",
    "postal_code": "21106"
  },
  {
    "province": "Alajuela",
    "canton": "Alfaro Ruiz",
    "district": "Zarcero",
    "postal_code": "21101"
  },
  {
    "province": "Alajuela",
    "canton": "Atenas",
    "district": "Atenas",
    "postal_code": "20501"
  },
  {
    "province": "Alajuela",
    "canton": "Atenas",
    "district": "Concepción",
    "postal_code": "20505"
  },
  {
    "province": "Alajuela",
    "canton": "Atenas",
    "district": "Escobal",
    "postal_code": "20508"
  },
  {
    "province": "Alajuela",
    "canton": "Atenas",
    "district": "Jesús",
    "postal_code": "20502"
  },
  {
    "province": "Alajuela",
    "canton": "Atenas",
    "district": "Mercedes",
    "postal_code": "20503"
  },
  {
    "province": "Alajuela",
    "canton": "Atenas",
    "district": "San Isidro",
    "postal_code": "20504"
  },
  {
    "province": "Alajuela",
    "canton": "Atenas",
    "district": "San José",
    "postal_code": "20506"
  },
  {
    "province": "Alajuela",
    "canton": "Atenas",
    "district": "Santa Eulalia",
    "postal_code": "20507"
  },
  {
    "province": "Alajuela",
    "canton": "Grecia",
    "district": "Bolívar",
    "postal_code": "20308"
  },
  {
    "province": "Alajuela",
    "canton": "Grecia",
    "district": "Grecia",
    "postal_code": "20301"
  },
  {
    "province": "Alajuela",
    "canton": "Grecia",
    "district": "Puente de Piedra",
    "postal_code": "20307"
  },
  {
    "province": "Alajuela",
    "canton": "Grecia",
    "district": "Río Cuarto",
    "postal_code": "20306"
  },
  {
    "province": "Alajuela",
    "canton": "Grecia",
    "district": "San Isidro",
    "postal_code": "20302"
  },
  {
    "province": "Alajuela",
    "canton": "Grecia",
    "district": "San José",
    "postal_code": "20303"
  },
  {
    "province": "Alajuela",
    "canton": "Grecia",
    "district": "San Roque",
    "postal_code": "20304"
  },
  {
    "province": "Alajuela",
    "canton": "Grecia",
    "district": "Tacares",
    "postal_code": "20305"
  },
  {
    "province": "Alajuela",
    "canton": "Guatuso",
    "district": "Buenavista",
    "postal_code": "21502"
  },
  {
    "province": "Alajuela",
    "canton": "Guatuso",
    "district": "Cote",
    "postal_code": "21503"
  },
  {
    "province": "Alajuela",
    "canton": "Guatuso",
    "district": "Katira",
    "postal_code": "21504"
  },
  {
    "province": "Alajuela",
    "canton": "Guatuso",
    "district": "San Rafael",
    "postal_code": "21501"
  },
  {
    "province": "Alajuela",
    "canton": "Los Chiles",
    "district": "Caño Negro",
    "postal_code": "21402"
  },
  {
    "province": "Alajuela",
    "canton": "Los Chiles",
    "district": "El Amparo",
    "postal_code": "21403"
  },
  {
    "province": "Alajuela",
    "canton": "Los Chiles",
    "district": "Los Chiles",
    "postal_code": "21401"
  },
  {
    "province": "Alajuela",
    "canton": "Los Chiles",
    "district": "San Jorge",
    "postal_code": "21404"
  },
  {
    "province": "Alajuela",
    "canton": "Naranjo",
    "district": "Cirri Sur",
    "postal_code": "20604"
  },
  {
    "province": "Alajuela",
    "canton": "Naranjo",
    "district": "Naranjo",
    "postal_code": "20601"
  },
  {
    "province": "Alajuela",
    "canton": "Naranjo",
    "district": "Palmitos",
    "postal_code": "20608"
  },
  {
    "province": "Alajuela",
    "canton": "Naranjo",
    "district": "Rosario",
    "postal_code": "20607"
  },
  {
    "province": "Alajuela",
    "canton": "Naranjo",
    "district": "San Jerónimo",
    "postal_code": "20605"
  },
  {
    "province": "Alajuela",
    "canton": "Naranjo",
    "district": "San José",
    "postal_code": "20603"
  },
  {
    "province": "Alajuela",
    "canton": "Naranjo",
    "district": "San Juan",
    "postal_code": "20606"
  },
  {
    "province": "Alajuela",
    "canton": "Naranjo",
    "district": "San Miguel",
    "postal_code": "20602"
  },
  {
    "province": "Alajuela",
    "canton": "Orotina",
    "district": "Ceiba",
    "postal_code": "20905"
  },
  {
    "province": "Alajuela",
    "canton": "Orotina",
    "district": "Coyolar",
    "postal_code": "20904"
  },
  {
    "province": "Alajuela",
    "canton": "Orotina",
    "district": "Hacienda Vieja",
    "postal_code": "20903"
  },
  {
    "province": "Alajuela",
    "canton": "Orotina",
    "district": "Mastate",
    "postal_code": "20902"
  },
  {
    "province": "Alajuela",
    "canton": "Orotina",
    "district": "Orotina",
    "postal_code": "20901"
  },
  {
    "province": "Alajuela",
    "canton": "Palmares",
    "district": "Buenos Aires",
    "postal_code": "20703"
  },
  {
    "province": "Alajuela",
    "canton": "Palmares",
    "district": "Candelaria",
    "postal_code": "20705"
  },
  {
    "province": "Alajuela",
    "canton": "Palmares",
    "district": "Esquipulas",
    "postal_code": "20706"
  },
  {
    "province": "Alajuela",
    "canton": "Palmares",
    "district": "Granja",
    "postal_code": "20707"
  },
  {
    "province": "Alajuela",
    "canton": "Palmares",
    "district": "Palmares",
    "postal_code": "20701"
  },
  {
    "province": "Alajuela",
    "canton": "Palmares",
    "district": "Santiago",
    "postal_code": "20704"
  },
  {
    "province": "Alajuela",
    "canton": "Palmares",
    "district": "Zaragoza",
    "postal_code": "20702"
  },
  {
    "province": "Alajuela",
    "canton": "Poas",
    "district": "Carrillos",
    "postal_code": "20804"
  },
  {
    "province": "Alajuela",
    "canton": "Poas",
    "district": "Sabana Redonda",
    "postal_code": "20805"
  },
  {
    "province": "Alajuela",
    "canton": "Poas",
    "district": "San Juan",
    "postal_code": "20802"
  },
  {
    "province": "Alajuela",
    "canton": "Poas",
    "district": "San Pedro",
    "postal_code": "20801"
  },
  {
    "province": "Alajuela",
    "canton": "Poas",
    "district": "San Rafael",
    "postal_code": "20803"
  },
  {
    "province": "Alajuela",
    "canton": "San Carlos",
    "district": "Aguas Zarcas",
    "postal_code": "21004"
  },
  {
    "province": "Alajuela",
    "canton": "San Carlos",
    "district": "Buenavista",
    "postal_code": "21003"
  },
  {
    "province": "Alajuela",
    "canton": "San Carlos",
    "district": "Cutris",
    "postal_code": "21011"
  },
  {
    "province": "Alajuela",
    "canton": "San Carlos",
    "district": "Florencia",
    "postal_code": "21002"
  },
  {
    "province": "Alajuela",
    "canton": "San Carlos",
    "district": "Fortuna",
    "postal_code": "21007"
  },
  {
    "province": "Alajuela",
    "canton": "San Carlos",
    "district": "Monterrey",
    "postal_code": "21012"
  },
  {
    "province": "Alajuela",
    "canton": "San Carlos",
    "district": "Palmera",
    "postal_code": "21009"
  },
  {
    "province": "Alajuela",
    "canton": "San Carlos",
    "district": "Pital",
    "postal_code": "21006"
  },
  {
    "province": "Alajuela",
    "canton": "San Carlos",
    "district": "Pocosol",
    "postal_code": "21013"
  },
  {
    "province": "Alajuela",
    "canton": "San Carlos",
    "district": "Quesada",
    "postal_code": "21001"
  },
  {
    "province": "Alajuela",
    "canton": "San Carlos",
    "district": "Tigra",
    "postal_code": "21008"
  },
  {
    "province": "Alajuela",
    "canton": "San Carlos",
    "district": "Venado",
    "postal_code": "21010"
  },
  {
    "province": "Alajuela",
    "canton": "San Carlos",
    "district": "Venecia",
    "postal_code": "21005"
  },
  {
    "province": "Alajuela",
    "canton": "San Mateo",
    "district": "Desmonte",
    "postal_code": "20402"
  },
  {
    "province": "Alajuela",
    "canton": "San Mateo",
    "district": "Jesús María",
    "postal_code": "20403"
  },
  {
    "province": "Alajuela",
    "canton": "San Mateo",
    "district": "San Mateo",
    "postal_code": "20401"
  },
  {
    "province": "Alajuela",
    "canton": "San Ramón",
    "district": "Alfaro",
    "postal_code": "20209"
  },
  {
    "province": "Alajuela",
    "canton": "San Ramón",
    "district": "Concepción",
    "postal_code": "20211"
  },
  {
    "province": "Alajuela",
    "canton": "San Ramón",
    "district": "Peñas Blancas",
    "postal_code": "20213"
  },
  {
    "province": "Alajuela",
    "canton": "San Ramón",
    "district": "Piedades Norte",
    "postal_code": "20204"
  },
  {
    "province": "Alajuela",
    "canton": "San Ramón",
    "district": "Piedades Sur",
    "postal_code": "20205"
  },
  {
    "province": "Alajuela",
    "canton": "San Ramón",
    "district": "San Isidro",
    "postal_code": "20207"
  },
  {
    "province": "Alajuela",
    "canton": "San Ramón",
    "district": "San Juan",
    "postal_code": "20203"
  },
  {
    "province": "Alajuela",
    "canton": "San Ramón",
    "district": "San Rafael",
    "postal_code": "20206"
  },
  {
    "province": "Alajuela",
    "canton": "San Ramón",
    "district": "San Ramón",
    "postal_code": "20201"
  },
  {
    "province": "Alajuela",
    "canton": "San Ramón",
    "district": "Santiago",
    "postal_code": "20202"
  },
  {
    "province": "Alajuela",
    "canton": "San Ramón",
    "district": "Volio",
    "postal_code": "20210"
  },
  {
    "province": "Alajuela",
    "canton": "San Ramón",
    "district": "Zapotal",
    "postal_code": "20212"
  },
  {
    "province": "Alajuela",
    "canton": "San Ramón",
    "district": "Ángeles",
    "postal_code": "20208"
  },
  {
    "province": "Alajuela",
    "canton": "Upala",
    "district": "Aguas Claras",
    "postal_code": "21302"
  },
  {
    "province": "Alajuela",
    "canton": "Upala",
    "district": "Bijagua",
    "postal_code": "21304"
  },
  {
    "province": "Alajuela",
    "canton": "Upala",
    "district": "Delicias",
    "postal_code": "21305"
  },
  {
    "province": "Alajuela",
    "canton": "Upala",
    "district": "Dos Ríos",
    "postal_code": "21306"
  },
  {
    "province": "Alajuela",
    "canton": "Upala",
    "district": "San José (Pizote)",
    "postal_code": "21303"
  },
  {
    "province": "Alajuela",
    "canton": "Upala",
    "district": "Upala",
    "postal_code": "21301"
  },
  {
    "province": "Alajuela",
    "canton": "Upala",
    "district": "Yoliyllal",
    "postal_code": "21307"
  },
  {
    "province": "Alajuela",
    "canton": "Valverde Vega",
    "district": "Rodríguez",
    "postal_code": "21205"
  },
  {
    "province": "Alajuela",
    "canton": "Valverde Vega",
    "district": "San Pedro",
    "postal_code": "21204"
  },
  {
    "province": "Alajuela",
    "canton": "Valverde Vega",
    "district": "Sarchi Norte",
    "postal_code": "21201"
  },
  {
    "province": "Alajuela",
    "canton": "Valverde Vega",
    "district": "Sarchi Sur",
    "postal_code": "21202"
  },
  {
    "province": "Alajuela",
    "canton": "Valverde Vega",
    "district": "Toro Amarillo",
    "postal_code": "21203"
  },
  {
    "province": "Cartago",
    "canton": "Alvarado",
    "district": "Capellades",
    "postal_code": "30603"
  },
  {
    "province": "Cartago",
    "canton": "Alvarado",
    "district": "Cervantes",
    "postal_code": "30602"
  },
  {
    "province": "Cartago",
    "canton": "Alvarado",
    "district": "Pacayas",
    "postal_code": "30601"
  },
  {
    "province": "Cartago",
    "canton": "Cartago",
    "district": "Aguacaliente (San Francisco)",
    "postal_code": "30105"
  },
  {
    "province": "Cartago",
    "canton": "Cartago",
    "district": "Carmen",
    "postal_code": "30103"
  },
  {
    "province": "Cartago",
    "canton": "Cartago",
    "district": "Corralillo",
    "postal_code": "30107"
  },
  {
    "province": "Cartago",
    "canton": "Cartago",
    "district": "Dulce Nombre",
    "postal_code": "30109"
  },
  {
    "province": "Cartago",
    "canton": "Cartago",
    "district": "Guadalupe (Arenilla)",
    "postal_code": "30106"
  },
  {
    "province": "Cartago",
    "canton": "Cartago",
    "district": "Llano Grande",
    "postal_code": "30110"
  },
  {
    "province": "Cartago",
    "canton": "Cartago",
    "district": "Occidental",
    "postal_code": "30102"
  },
  {
    "province": "Cartago",
    "canton": "Cartago",
    "district": "Oriental",
    "postal_code": "30101"
  },
  {
    "province": "Cartago",
    "canton": "Cartago",
    "district": "Quebradilla",
    "postal_code": "30111"
  },
  {
    "province": "Cartago",
    "canton": "Cartago",
    "district": "San Nicolas",
    "postal_code": "30104"
  },
  {
    "province": "Cartago",
    "canton": "Cartago",
    "district": "Tierra Blanca",
    "postal_code": "30108"
  },
  {
    "province": "Cartago",
    "canton": "El Guarco",
    "district": "Patio de Agua",
    "postal_code": "30804"
  },
  {
    "province": "Cartago",
    "canton": "El Guarco",
    "district": "San Isidro",
    "postal_code": "30802"
  },
  {
    "province": "Cartago",
    "canton": "El Guarco",
    "district": "Tejar",
    "postal_code": "30801"
  },
  {
    "province": "Cartago",
    "canton": "El Guarco",
    "district": "Tobosí",
    "postal_code": "30803"
  },
  {
    "province": "Cartago",
    "canton": "Jiménez",
    "district": "Juan Viñas",
    "postal_code": "30401"
  },
  {
    "province": "Cartago",
    "canton": "Jiménez",
    "district": "Pejibaye",
    "postal_code": "30403"
  },
  {
    "province": "Cartago",
    "canton": "Jiménez",
    "district": "Tucurrique",
    "postal_code": "30402"
  },
  {
    "province": "Cartago",
    "canton": "La Unión",
    "district": "Concepción",
    "postal_code": "30305"
  },
  {
    "province": "Cartago",
    "canton": "La Unión",
    "district": "Dulce Nombre",
    "postal_code": "30306"
  },
  {
    "province": "Cartago",
    "canton": "La Unión",
    "district": "Río Azul",
    "postal_code": "30308"
  },
  {
    "province": "Cartago",
    "canton": "La Unión",
    "district": "San Diego",
    "postal_code": "30302"
  },
  {
    "province": "Cartago",
    "canton": "La Unión",
    "district": "San Juan",
    "postal_code": "30303"
  },
  {
    "province": "Cartago",
    "canton": "La Unión",
    "district": "San Rafael",
    "postal_code": "30304"
  },
  {
    "province": "Cartago",
    "canton": "La Unión",
    "district": "San Ramón",
    "postal_code": "30307"
  },
  {
    "province": "Cartago",
    "canton": "La Unión",
    "district": "Tres Ríos",
    "postal_code": "30301"
  },
  {
    "province": "Cartago",
    "canton": "Oreamuno",
    "district": "Cipreses",
    "postal_code": "30704"
  },
  {
    "province": "Cartago",
    "canton": "Oreamuno",
    "district": "Cot",
    "postal_code": "30702"
  },
  {
    "province": "Cartago",
    "canton": "Oreamuno",
    "district": "Potrero Cerrado",
    "postal_code": "30703"
  },
  {
    "province": "Cartago",
    "canton": "Oreamuno",
    "district": "San Rafael",
    "postal_code": "30701"
  },
  {
    "province": "Cartago",
    "canton": "Oreamuno",
    "district": "Santa Rosa",
    "postal_code": "30705"
  },
  {
    "province": "Cartago",
    "canton": "Paraíso",
    "district": "Cachi",
    "postal_code": "30204"
  },
  {
    "province": "Cartago",
    "canton": "Paraíso",
    "district": "Llanos de Santa Lucia",
    "postal_code": "30205"
  },
  {
    "province": "Cartago",
    "canton": "Paraíso",
    "district": "Orosí",
    "postal_code": "30203"
  },
  {
    "province": "Cartago",
    "canton": "Paraíso",
    "district": "Paraíso",
    "postal_code": "30201"
  },
  {
    "province": "Cartago",
    "canton": "Paraíso",
    "district": "Santiago",
    "postal_code": "30202"
  },
  {
    "province": "Cartago",
    "canton": "Turrialba",
    "district": "Chirripo",
    "postal_code": "30512"
  },
  {
    "province": "Cartago",
    "canton": "Turrialba",
    "district": "La Isabel",
    "postal_code": "30511"
  },
  {
    "province": "Cartago",
    "canton": "Turrialba",
    "district": "La Suiza",
    "postal_code": "30502"
  },
  {
    "province": "Cartago",
    "canton": "Turrialba",
    "district": "Pavones",
    "postal_code": "30506"
  },
  {
    "province": "Cartago",
    "canton": "Turrialba",
    "district": "Peralta",
    "postal_code": "30503"
  },
  {
    "province": "Cartago",
    "canton": "Turrialba",
    "district": "Santa Cruz",
    "postal_code": "30504"
  },
  {
    "province": "Cartago",
    "canton": "Turrialba",
    "district": "Santa Rosa",
    "postal_code": "30509"
  },
  {
    "province": "Cartago",
    "canton": "Turrialba",
    "district": "Santa Teresita",
    "postal_code": "30505"
  },
  {
    "province": "Cartago",
    "canton": "Turrialba",
    "district": "Tayutic",
    "postal_code": "30508"
  },
  {
    "province": "Cartago",
    "canton": "Turrialba",
    "district": "Tres Equis",
    "postal_code": "30510"
  },
  {
    "province": "Cartago",
    "canton": "Turrialba",
    "district": "Tuis",
    "postal_code": "30507"
  },
  {
    "province": "Cartago",
    "canton": "Turrialba",
    "district": "Turrialba",
    "postal_code": "30501"
  },
  {
    "province": "Guanacaste",
    "canton": "Abangares",
    "district": "Colorado",
    "postal_code": "50704"
  },
  {
    "province": "Guanacaste",
    "canton": "Abangares",
    "district": "Juntas",
    "postal_code": "50701"
  },
  {
    "province": "Guanacaste",
    "canton": "Abangares",
    "district": "San Juan",
    "postal_code": "50703"
  },
  {
    "province": "Guanacaste",
    "canton": "Abangares",
    "district": "Sierra",
    "postal_code": "50702"
  },
  {
    "province": "Guanacaste",
    "canton": "Bagaces",
    "district": "Bagaces",
    "postal_code": "50401"
  },
  {
    "province": "Guanacaste",
    "canton": "Bagaces",
    "district": "Fortuna",
    "postal_code": "50402"
  },
  {
    "province": "Guanacaste",
    "canton": "Bagaces",
    "district": "Mogote",
    "postal_code": "50403"
  },
  {
    "province": "Guanacaste",
    "canton": "Bagaces",
    "district": "Río Naranjo",
    "postal_code": "50404"
  },
  {
    "province": "Guanacaste",
    "canton": "Carrillo",
    "district": "Belén",
    "postal_code": "50504"
  },
  {
    "province": "Guanacaste",
    "canton": "Carrillo",
    "district": "Filadelfia",
    "postal_code": "50501"
  },
  {
    "province": "Guanacaste",
    "canton": "Carrillo",
    "district": "Palmira",
    "postal_code": "50502"
  },
  {
    "province": "Guanacaste",
    "canton": "Carrillo",
    "district": "Sardinal",
    "postal_code": "50503"
  },
  {
    "province": "Guanacaste",
    "canton": "Cañas",
    "district": "Bebedero",
    "postal_code": "50604"
  },
  {
    "province": "Guanacaste",
    "canton": "Cañas",
    "district": "Cañas",
    "postal_code": "50601"
  },
  {
    "province": "Guanacaste",
    "canton": "Cañas",
    "district": "Palmira",
    "postal_code": "50602"
  },
  {
    "province": "Guanacaste",
    "canton": "Cañas",
    "district": "Porozal",
    "postal_code": "50605"
  },
  {
    "province": "Guanacaste",
    "canton": "Cañas",
    "district": "San Miguel",
    "postal_code": "50603"
  },
  {
    "province": "Guanacaste",
    "canton": "Hojancha",
    "district": "Hojancha",
    "postal_code": "51101"
  },
  {
    "province": "Guanacaste",
    "canton": "Hojancha",
    "district": "Huacas",
    "postal_code": "51104"
  },
  {
    "province": "Guanacaste",
    "canton": "Hojancha",
    "district": "Monte Romo",
    "postal_code": "51102"
  },
  {
    "province": "Guanacaste",
    "canton": "Hojancha",
    "district": "Puerto Carrillo",
    "postal_code": "51103"
  },
  {
    "province": "Guanacaste",
    "canton": "La Cruz",
    "district": "Garita",
    "postal_code": "51003"
  },
  {
    "province": "Guanacaste",
    "canton": "La Cruz",
    "district": "La Cruz",
    "postal_code": "51001"
  },
  {
    "province": "Guanacaste",
    "canton": "La Cruz",
    "district": "Santa Cecilia",
    "postal_code": "51002"
  },
  {
    "province": "Guanacaste",
    "canton": "La Cruz",
    "district": "Santa Elena",
    "postal_code": "51004"
  },
  {
    "province": "Guanacaste",
    "canton": "Liberia",
    "district": "Cañas Dulces",
    "postal_code": "50102"
  },
  {
    "province": "Guanacaste",
    "canton": "Liberia",
    "district": "Curubande",
    "postal_code": "50105"
  },
  {
    "province": "Guanacaste",
    "canton": "Liberia",
    "district": "Liberia",
    "postal_code": "50101"
  },
  {
    "province": "Guanacaste",
    "canton": "Liberia",
    "district": "Mayorga",
    "postal_code": "50103"
  },
  {
    "province": "Guanacaste",
    "canton": "Liberia",
    "district": "Nacascolo",
    "postal_code": "50104"
  },
  {
    "province": "Guanacaste",
    "canton": "Nandayure",
    "district": "Bejuco",
    "postal_code": "50906"
  },
  {
    "province": "Guanacaste",
    "canton": "Nandayure",
    "district": "Carmona",
    "postal_code": "50901"
  },
  {
    "province": "Guanacaste",
    "canton": "Nandayure",
    "district": "Porvenir",
    "postal_code": "50905"
  },
  {
    "province": "Guanacaste",
    "canton": "Nandayure",
    "district": "San Pablo",
    "postal_code": "50904"
  },
  {
    "province": "Guanacaste",
    "canton": "Nandayure",
    "district": "Santa Rita",
    "postal_code": "50902"
  },
  {
    "province": "Guanacaste",
    "canton": "Nandayure",
    "district": "Zapotal",
    "postal_code": "50903"
  },
  {
    "province": "Guanacaste",
    "canton": "Nicoya",
    "district": "Belén de Nosarita",
    "postal_code": "50207"
  },
  {
    "province": "Guanacaste",
    "canton": "Nicoya",
    "district": "Mansión",
    "postal_code": "50202"
  },
  {
    "province": "Guanacaste",
    "canton": "Nicoya",
    "district": "Nicoya",
    "postal_code": "50201"
  },
  {
    "province": "Guanacaste",
    "canton": "Nicoya",
    "district": "Nosara",
    "postal_code": "50206"
  },
  {
    "province": "Guanacaste",
    "canton": "Nicoya",
    "district": "Quebrada Honda",
    "postal_code": "50204"
  },
  {
    "province": "Guanacaste",
    "canton": "Nicoya",
    "district": "Samara",
    "postal_code": "50205"
  },
  {
    "province": "Guanacaste",
    "canton": "Nicoya",
    "district": "San Antonio",
    "postal_code": "50203"
  },
  {
    "province": "Guanacaste",
    "canton": "Santa Cruz",
    "district": "Bolsón",
    "postal_code": "50302"
  },
  {
    "province": "Guanacaste",
    "canton": "Santa Cruz",
    "district": "Cabo Velas",
    "postal_code": "50308"
  },
  {
    "province": "Guanacaste",
    "canton": "Santa Cruz",
    "district": "Cartagena",
    "postal_code": "50305"
  },
  {
    "province": "Guanacaste",
    "canton": "Santa Cruz",
    "district": "Cuajiniquil",
    "postal_code": "50306"
  },
  {
    "province": "Guanacaste",
    "canton": "Santa Cruz",
    "district": "Diriá",
    "postal_code": "50307"
  },
  {
    "province": "Guanacaste",
    "canton": "Santa Cruz",
    "district": "Santa Cruz",
    "postal_code": "50301"
  },
  {
    "province": "Guanacaste",
    "canton": "Santa Cruz",
    "district": "Tamarindo",
    "postal_code": "50309"
  },
  {
    "province": "Guanacaste",
    "canton": "Santa Cruz",
    "district": "Tempate",
    "postal_code": "50304"
  },
  {
    "province": "Guanacaste",
    "canton": "Santa Cruz",
    "district": "Veintisiete de Abril",
    "postal_code": "50303"
  },
  {
    "province": "Guanacaste",
    "canton": "Tilarán",
    "district": "Arenal",
    "postal_code": "50807"
  },
  {
    "province": "Guanacaste",
    "canton": "Tilarán",
    "district": "Líbano",
    "postal_code": "50805"
  },
  {
    "province": "Guanacaste",
    "canton": "Tilarán",
    "district": "Quebrada Grande",
    "postal_code": "50802"
  },
  {
    "province": "Guanacaste",
    "canton": "Tilarán",
    "district": "Santa Rosa",
    "postal_code": "50804"
  },
  {
    "province": "Guanacaste",
    "canton": "Tilarán",
    "district": "Tierras Morenas",
    "postal_code": "50806"
  },
  {
    "province": "Guanacaste",
    "canton": "Tilarán",
    "district": "Tilarán",
    "postal_code": "50801"
  },
  {
    "province": "Guanacaste",
    "canton": "Tilarán",
    "district": "Tronadora",
    "postal_code": "50803"
  },
  {
    "province": "Heredia",
    "canton": "Barva",
    "district": "Barva",
    "postal_code": "40201"
  },
  {
    "province": "Heredia",
    "canton": "Barva",
    "district": "San José de la Montaña",
    "postal_code": "40206"
  },
  {
    "province": "Heredia",
    "canton": "Barva",
    "district": "San Pablo",
    "postal_code": "40203"
  },
  {
    "province": "Heredia",
    "canton": "Barva",
    "district": "San Pedro",
    "postal_code": "40202"
  },
  {
    "province": "Heredia",
    "canton": "Barva",
    "district": "San Roque",
    "postal_code": "40204"
  },
  {
    "province": "Heredia",
    "canton": "Barva",
    "district": "Santa Lucia",
    "postal_code": "40205"
  },
  {
    "province": "Heredia",
    "canton": "Belén",
    "district": "Asunción",
    "postal_code": "40703"
  },
  {
    "province": "Heredia",
    "canton": "Belén",
    "district": "Ribera",
    "postal_code": "40702"
  },
  {
    "province": "Heredia",
    "canton": "Belén",
    "district": "San Antonio",
    "postal_code": "40701"
  },
  {
    "province": "Heredia",
    "canton": "Flores",
    "district": "Barrantes",
    "postal_code": "40802"
  },
  {
    "province": "Heredia",
    "canton": "Flores",
    "district": "Llorente",
    "postal_code": "40803"
  },
  {
    "province": "Heredia",
    "canton": "Flores",
    "district": "San Joaquín de Flores",
    "postal_code": "40801"
  },
  {
    "province": "Heredia",
    "canton": "Heredia",
    "district": "Heredia",
    "postal_code": "40101"
  },
  {
    "province": "Heredia",
    "canton": "Heredia",
    "district": "Mercedes",
    "postal_code": "40102"
  },
  {
    "province": "Heredia",
    "canton": "Heredia",
    "district": "San Francisco",
    "postal_code": "40103"
  },
  {
    "province": "Heredia",
    "canton": "Heredia",
    "district": "Ulloa",
    "postal_code": "40104"
  },
  {
    "province": "Heredia",
    "canton": "Heredia",
    "district": "Varablanca",
    "postal_code": "40105"
  },
  {
    "province": "Heredia",
    "canton": "San Isidro",
    "district": "Concepción",
    "postal_code": "40603"
  },
  {
    "province": "Heredia",
    "canton": "San Isidro",
    "district": "San Francisco",
    "postal_code": "40604"
  },
  {
    "province": "Heredia",
    "canton": "San Isidro",
    "district": "San Isidro",
    "postal_code": "40601"
  },
  {
    "province": "Heredia",
    "canton": "San Isidro",
    "district": "San José",
    "postal_code": "40602"
  },
  {
    "province": "Heredia",
    "canton": "San Pablo",
    "district": "Rincón de Sabanilla",
    "postal_code": "40902"
  },
  {
    "province": "Heredia",
    "canton": "San Pablo",
    "district": "San Pablo",
    "postal_code": "40901"
  },
  {
    "province": "Heredia",
    "canton": "San Rafael",
    "district": "Concepción",
    "postal_code": "40505"
  },
  {
    "province": "Heredia",
    "canton": "San Rafael",
    "district": "San Josecito",
    "postal_code": "40502"
  },
  {
    "province": "Heredia",
    "canton": "San Rafael",
    "district": "San Rafael",
    "postal_code": "40501"
  },
  {
    "province": "Heredia",
    "canton": "San Rafael",
    "district": "Santiago",
    "postal_code": "40503"
  },
  {
    "province": "Heredia",
    "canton": "San Rafael",
    "district": "Ángeles",
    "postal_code": "40504"
  },
  {
    "province": "Heredia",
    "canton": "Santa Barbara",
    "district": "Jesús",
    "postal_code": "40404"
  },
  {
    "province": "Heredia",
    "canton": "Santa Barbara",
    "district": "Puraba",
    "postal_code": "40406"
  },
  {
    "province": "Heredia",
    "canton": "Santa Barbara",
    "district": "San Juan",
    "postal_code": "40403"
  },
  {
    "province": "Heredia",
    "canton": "Santa Barbara",
    "district": "San Pedro",
    "postal_code": "40402"
  },
  {
    "province": "Heredia",
    "canton": "Santa Barbara",
    "district": "Santa Barbara",
    "postal_code": "40401"
  },
  {
    "province": "Heredia",
    "canton": "Santa Barbara",
    "district": "Santo Domingo",
    "postal_code": "40405"
  },
  {
    "province": "Heredia",
    "canton": "Santo Domingo",
    "district": "Para",
    "postal_code": "40308"
  },
  {
    "province": "Heredia",
    "canton": "Santo Domingo",
    "district": "Paracito",
    "postal_code": "40304"
  },
  {
    "province": "Heredia",
    "canton": "Santo Domingo",
    "district": "San Miguel",
    "postal_code": "40303"
  },
  {
    "province": "Heredia",
    "canton": "Santo Domingo",
    "district": "San Vicente",
    "postal_code": "40302"
  },
  {
    "province": "Heredia",
    "canton": "Santo Domingo",
    "district": "Santa Rosa",
    "postal_code": "40306"
  },
  {
    "province": "Heredia",
    "canton": "Santo Domingo",
    "district": "Santo Domingo",
    "postal_code": "40301"
  },
  {
    "province": "Heredia",
    "canton": "Santo Domingo",
    "district": "Santo Tomás",
    "postal_code": "40305"
  },
  {
    "province": "Heredia",
    "canton": "Santo Domingo",
    "district": "Tures",
    "postal_code": "40307"
  },
  {
    "province": "Heredia",
    "canton": "Sarapiquí",
    "district": "Cureña",
    "postal_code": "41005"
  },
  {
    "province": "Heredia",
    "canton": "Sarapiquí",
    "district": "Horquetas",
    "postal_code": "41003"
  },
  {
    "province": "Heredia",
    "canton": "Sarapiquí",
    "district": "La Virgen",
    "postal_code": "41002"
  },
  {
    "province": "Heredia",
    "canton": "Sarapiquí",
    "district": "Llanuras del Gaspar",
    "postal_code": "41004"
  },
  {
    "province": "Heredia",
    "canton": "Sarapiquí",
    "district": "Puerto Viejo",
    "postal_code": "41001"
  },
  {
    "province": "Limón",
    "canton": "Guácimo",
    "district": "Duacari",
    "postal_code": "70605"
  },
  {
    "province": "Limón",
    "canton": "Guácimo",
    "district": "Guácimo",
    "postal_code": "70601"
  },
  {
    "province": "Limón",
    "canton": "Guácimo",
    "district": "Mercedes",
    "postal_code": "70602"
  },
  {
    "province": "Limón",
    "canton": "Guácimo",
    "district": "Pocora",
    "postal_code": "70603"
  },
  {
    "province": "Limón",
    "canton": "Guácimo",
    "district": "Río Jiménez",
    "postal_code": "70604"
  },
  {
    "province": "Limón",
    "canton": "Limón",
    "district": "Limón",
    "postal_code": "70101"
  },
  {
    "province": "Limón",
    "canton": "Limón",
    "district": "Matama",
    "postal_code": "70104"
  },
  {
    "province": "Limón",
    "canton": "Limón",
    "district": "Río Blanco",
    "postal_code": "70103"
  },
  {
    "province": "Limón",
    "canton": "Limón",
    "district": "Valle La Estrella",
    "postal_code": "70102"
  },
  {
    "province": "Limón",
    "canton": "Matina",
    "district": "Battan",
    "postal_code": "70502"
  },
  {
    "province": "Limón",
    "canton": "Matina",
    "district": "Carrandi",
    "postal_code": "70503"
  },
  {
    "province": "Limón",
    "canton": "Matina",
    "district": "Matina",
    "postal_code": "70501"
  },
  {
    "province": "Limón",
    "canton": "Pococí",
    "district": "Cariari",
    "postal_code": "70205"
  },
  {
    "province": "Limón",
    "canton": "Pococí",
    "district": "Colorado",
    "postal_code": "70206"
  },
  {
    "province": "Limón",
    "canton": "Pococí",
    "district": "Guapiles",
    "postal_code": "70201"
  },
  {
    "province": "Limón",
    "canton": "Pococí",
    "district": "Jiménez",
    "postal_code": "70202"
  },
  {
    "province": "Limón",
    "canton": "Pococí",
    "district": "Rita",
    "postal_code": "70203"
  },
  {
    "province": "Limón",
    "canton": "Pococí",
    "district": "Roxana",
    "postal_code": "70204"
  },
  {
    "province": "Limón",
    "canton": "Siquirres",
    "district": "Alegría",
    "postal_code": "70306"
  },
  {
    "province": "Limón",
    "canton": "Siquirres",
    "district": "Cairo",
    "postal_code": "70305"
  },
  {
    "province": "Limón",
    "canton": "Siquirres",
    "district": "Florida",
    "postal_code": "70303"
  },
  {
    "province": "Limón",
    "canton": "Siquirres",
    "district": "Germania",
    "postal_code": "70304"
  },
  {
    "province": "Limón",
    "canton": "Siquirres",
    "district": "Pacuarito",
    "postal_code": "70302"
  },
  {
    "province": "Limón",
    "canton": "Siquirres",
    "district": "Siquirres",
    "postal_code": "70301"
  },
  {
    "province": "Limón",
    "canton": "Talamanca",
    "district": "Bratsi",
    "postal_code": "70401"
  },
  {
    "province": "Limón",
    "canton": "Talamanca",
    "district": "Cahuita",
    "postal_code": "70403"
  },
  {
    "province": "Limón",
    "canton": "Talamanca",
    "district": "Sixaola",
    "postal_code": "70402"
  },
  {
    "province": "Limón",
    "canton": "Talamanca",
    "district": "Telire",
    "postal_code": "70404"
  },
  {
    "province": "Puntarenas",
    "canton": "Aguirre",
    "district": "Naranjito",
    "postal_code": "60603"
  },
  {
    "province": "Puntarenas",
    "canton": "Aguirre",
    "district": "Quepos",
    "postal_code": "60601"
  },
  {
    "province": "Puntarenas",
    "canton": "Aguirre",
    "district": "Savegre",
    "postal_code": "60602"
  },
  {
    "province": "Puntarenas",
    "canton": "Buenos Aires",
    "district": "Boruca",
    "postal_code": "60304"
  },
  {
    "province": "Puntarenas",
    "canton": "Buenos Aires",
    "district": "Briolley",
    "postal_code": "60308"
  },
  {
    "province": "Puntarenas",
    "canton": "Buenos Aires",
    "district": "Brunka",
    "postal_code": "60309"
  },
  {
    "province": "Puntarenas",
    "canton": "Buenos Aires",
    "district": "Buenos Aires",
    "postal_code": "60301"
  },
  {
    "province": "Puntarenas",
    "canton": "Buenos Aires",
    "district": "Changena",
    "postal_code": "60307"
  },
  {
    "province": "Puntarenas",
    "canton": "Buenos Aires",
    "district": "Colinas",
    "postal_code": "60306"
  },
  {
    "province": "Puntarenas",
    "canton": "Buenos Aires",
    "district": "Pilas",
    "postal_code": "60305"
  },
  {
    "province": "Puntarenas",
    "canton": "Buenos Aires",
    "district": "Potrero Grande",
    "postal_code": "60303"
  },
  {
    "province": "Puntarenas",
    "canton": "Buenos Aires",
    "district": "Volcán",
    "postal_code": "60302"
  },
  {
    "province": "Puntarenas",
    "canton": "Corredores",
    "district": "Canoas",
    "postal_code": "61003"
  },
  {
    "province": "Puntarenas",
    "canton": "Corredores",
    "district": "Corredor",
    "postal_code": "61001"
  },
  {
    "province": "Puntarenas",
    "canton": "Corredores",
    "district": "La Cuesta",
    "postal_code": "61002"
  },
  {
    "province": "Puntarenas",
    "canton": "Corredores",
    "district": "Laurel",
    "postal_code": "61004"
  },
  {
    "province": "Puntarenas",
    "canton": "Coto Brus",
    "district": "Aguabuena",
    "postal_code": "60803"
  },
  {
    "province": "Puntarenas",
    "canton": "Coto Brus",
    "district": "Limoncito",
    "postal_code": "60804"
  },
  {
    "province": "Puntarenas",
    "canton": "Coto Brus",
    "district": "Pittier",
    "postal_code": "60805"
  },
  {
    "province": "Puntarenas",
    "canton": "Coto Brus",
    "district": "Sabalito",
    "postal_code": "60802"
  },
  {
    "province": "Puntarenas",
    "canton": "Coto Brus",
    "district": "San Vito",
    "postal_code": "60801"
  },
  {
    "province": "Puntarenas",
    "canton": "Esparza",
    "district": "Espíritu Santo",
    "postal_code": "60201"
  },
  {
    "province": "Puntarenas",
    "canton": "Esparza",
    "district": "Macacona",
    "postal_code": "60203"
  },
  {
    "province": "Puntarenas",
    "canton": "Esparza",
    "district": "San Jerónimo",
    "postal_code": "60205"
  },
  {
    "province": "Puntarenas",
    "canton": "Esparza",
    "district": "San Juan Grande",
    "postal_code": "60202"
  },
  {
    "province": "Puntarenas",
    "canton": "Esparza",
    "district": "San Rafael",
    "postal_code": "60204"
  },
  {
    "province": "Puntarenas",
    "canton": "Garabito",
    "district": "Jaco",
    "postal_code": "61101"
  },
  {
    "province": "Puntarenas",
    "canton": "Garabito",
    "district": "Tarcoles",
    "postal_code": "61102"
  },
  {
    "province": "Puntarenas",
    "canton": "Golfito",
    "district": "Golfito",
    "postal_code": "60701"
  },
  {
    "province": "Puntarenas",
    "canton": "Golfito",
    "district": "Guaycara",
    "postal_code": "60703"
  },
  {
    "province": "Puntarenas",
    "canton": "Golfito",
    "district": "Pavón",
    "postal_code": "60704"
  },
  {
    "province": "Puntarenas",
    "canton": "Golfito",
    "district": "Puerto Jiménez",
    "postal_code": "60702"
  },
  {
    "province": "Puntarenas",
    "canton": "Montes de Oro",
    "district": "Miramar",
    "postal_code": "60401"
  },
  {
    "province": "Puntarenas",
    "canton": "Montes de Oro",
    "district": "San Isidro",
    "postal_code": "60403"
  },
  {
    "province": "Puntarenas",
    "canton": "Montes de Oro",
    "district": "Uníon",
    "postal_code": "60402"
  },
  {
    "province": "Puntarenas",
    "canton": "Osa",
    "district": "Bahia Ballena",
    "postal_code": "60504"
  },
  {
    "province": "Puntarenas",
    "canton": "Osa",
    "district": "Palmar",
    "postal_code": "60502"
  },
  {
    "province": "Puntarenas",
    "canton": "Osa",
    "district": "Piedras Blancas",
    "postal_code": "60505"
  },
  {
    "province": "Puntarenas",
    "canton": "Osa",
    "district": "Puerto Cortes",
    "postal_code": "60501"
  },
  {
    "province": "Puntarenas",
    "canton": "Osa",
    "district": "Sierpe",
    "postal_code": "60503"
  },
  {
    "province": "Puntarenas",
    "canton": "Parrita",
    "district": "Parrita",
    "postal_code": "60901"
  },
  {
    "province": "Puntarenas",
    "canton": "Puntarenas",
    "district": "Acapulco",
    "postal_code": "60114"
  },
  {
    "province": "Puntarenas",
    "canton": "Puntarenas",
    "district": "Arancibia",
    "postal_code": "60116"
  },
  {
    "province": "Puntarenas",
    "canton": "Puntarenas",
    "district": "Barranca",
    "postal_code": "60108"
  },
  {
    "province": "Puntarenas",
    "canton": "Puntarenas",
    "district": "Chacarita",
    "postal_code": "60112"
  },
  {
    "province": "Puntarenas",
    "canton": "Puntarenas",
    "district": "Chira",
    "postal_code": "60113"
  },
  {
    "province": "Puntarenas",
    "canton": "Puntarenas",
    "district": "Chomes",
    "postal_code": "60103"
  },
  {
    "province": "Puntarenas",
    "canton": "Puntarenas",
    "district": "Cóbano",
    "postal_code": "60111"
  },
  {
    "province": "Puntarenas",
    "canton": "Puntarenas",
    "district": "El Roble",
    "postal_code": "60115"
  },
  {
    "province": "Puntarenas",
    "canton": "Puntarenas",
    "district": "Guacimal",
    "postal_code": "60107"
  },
  {
    "province": "Puntarenas",
    "canton": "Puntarenas",
    "district": "Isla del Coco",
    "postal_code": "60110"
  },
  {
    "province": "Puntarenas",
    "canton": "Puntarenas",
    "district": "Lepanto",
    "postal_code": "60104"
  },
  {
    "province": "Puntarenas",
    "canton": "Puntarenas",
    "district": "Manzanillo",
    "postal_code": "60106"
  },
  {
    "province": "Puntarenas",
    "canton": "Puntarenas",
    "district": "Monte Verde",
    "postal_code": "60109"
  },
  {
    "province": "Puntarenas",
    "canton": "Puntarenas",
    "district": "Paquera",
    "postal_code": "60105"
  },
  {
    "province": "Puntarenas",
    "canton": "Puntarenas",
    "district": "Pitahaya",
    "postal_code": "60102"
  },
  {
    "province": "Puntarenas",
    "canton": "Puntarenas",
    "district": "Puntarenas",
    "postal_code": "60101"
  },
  {
    "province": "San José",
    "canton": "Acosta",
    "district": "Cangrejal",
    "postal_code": "11204"
  },
  {
    "province": "San José",
    "canton": "Acosta",
    "district": "Guaitil",
    "postal_code": "11202"
  },
  {
    "province": "San José",
    "canton": "Acosta",
    "district": "Palmichal",
    "postal_code": "11203"
  },
  {
    "province": "San José",
    "canton": "Acosta",
    "district": "Sabanillas",
    "postal_code": "11205"
  },
  {
    "province": "San José",
    "canton": "Acosta",
    "district": "San Ignacio de Acosta",
    "postal_code": "11201"
  },
  {
    "province": "San José",
    "canton": "Alajuelita",
    "district": "Alajuelita",
    "postal_code": "11001"
  },
  {
    "province": "San José",
    "canton": "Alajuelita",
    "district": "Concepción",
    "postal_code": "11004"
  },
  {
    "province": "San José",
    "canton": "Alajuelita",
    "district": "San Antonio",
    "postal_code": "11003"
  },
  {
    "province": "San José",
    "canton": "Alajuelita",
    "district": "San Felipe",
    "postal_code": "11005"
  },
  {
    "province": "San José",
    "canton": "Alajuelita",
    "district": "San Josecito",
    "postal_code": "11002"
  },
  {
    "province": "San José",
    "canton": "Aserrí",
    "district": "Aserrí",
    "postal_code": "10601"
  },
  {
    "province": "San José",
    "canton": "Aserrí",
    "district": "Legua",
    "postal_code": "10605"
  },
  {
    "province": "San José",
    "canton": "Aserrí",
    "district": "Monterrey",
    "postal_code": "10606"
  },
  {
    "province": "San José",
    "canton": "Aserrí",
    "district": "Salitrillos",
    "postal_code": "10607"
  },
  {
    "province": "San José",
    "canton": "Aserrí",
    "district": "San Gabriel",
    "postal_code": "10604"
  },
  {
    "province": "San José",
    "canton": "Aserrí",
    "district": "Tarbaca",
    "postal_code": "10602"
  },
  {
    "province": "San José",
    "canton": "Aserrí",
    "district": "Vuelta de Jorco",
    "postal_code": "10603"
  },
  {
    "province": "San José",
    "canton": "Curridabat",
    "district": "Curridabat",
    "postal_code": "11801"
  },
  {
    "province": "San José",
    "canton": "Curridabat",
    "district": "Granadilla",
    "postal_code": "11802"
  },
  {
    "province": "San José",
    "canton": "Curridabat",
    "district": "Sánchez",
    "postal_code": "11803"
  },
  {
    "province": "San José",
    "canton": "Curridabat",
    "district": "Tirrases",
    "postal_code": "11804"
  },
  {
    "province": "San José",
    "canton": "Desamparados",
    "district": "Damas",
    "postal_code": "10310"
  },
  {
    "province": "San José",
    "canton": "Desamparados",
    "district": "Desamparados",
    "postal_code": "10301"
  },
  {
    "province": "San José",
    "canton": "Desamparados",
    "district": "Frailes",
    "postal_code": "10306"
  },
  {
    "province": "San José",
    "canton": "Desamparados",
    "district": "Gravilias",
    "postal_code": "10312"
  },
  {
    "province": "San José",
    "canton": "Desamparados",
    "district": "Los Guido",
    "postal_code": "10313"
  },
  {
    "province": "San José",
    "canton": "Desamparados",
    "district": "Patarra",
    "postal_code": "10307"
  },
  {
    "province": "San José",
    "canton": "Desamparados",
    "district": "Rosario",
    "postal_code": "10309"
  },
  {
    "province": "San José",
    "canton": "Desamparados",
    "district": "San Antonio",
    "postal_code": "10305"
  },
  {
    "province": "San José",
    "canton": "Desamparados",
    "district": "San Cristóbal",
    "postal_code": "10308"
  },
  {
    "province": "San José",
    "canton": "Desamparados",
    "district": "San Juan de Dios",
    "postal_code": "10303"
  },
  {
    "province": "San José",
    "canton": "Desamparados",
    "district": "San Miguel",
    "postal_code": "10302"
  },
  {
    "province": "San José",
    "canton": "Desamparados",
    "district": "San Rafael Abajo",
    "postal_code": "10311"
  },
  {
    "province": "San José",
    "canton": "Desamparados",
    "district": "San Rafael Arriba",
    "postal_code": "10304"
  },
  {
    "province": "San José",
    "canton": "Dota",
    "district": "Copey",
    "postal_code": "11703"
  },
  {
    "province": "San José",
    "canton": "Dota",
    "district": "Jardín",
    "postal_code": "11702"
  },
  {
    "province": "San José",
    "canton": "Dota",
    "district": "Santa María",
    "postal_code": "11701"
  },
  {
    "province": "San José",
    "canton": "Escazú",
    "district": "Escazú",
    "postal_code": "10201"
  },
  {
    "province": "San José",
    "canton": "Escazú",
    "district": "San Antonio",
    "postal_code": "10202"
  },
  {
    "province": "San José",
    "canton": "Escazú",
    "district": "San Rafael",
    "postal_code": "10203"
  },
  {
    "province": "San José",
    "canton": "Goicoechea",
    "district": "Calle Blancos",
    "postal_code": "10803"
  },
  {
    "province": "San José",
    "canton": "Goicoechea",
    "district": "Guadalupe",
    "postal_code": "10801"
  },
  {
    "province": "San José",
    "canton": "Goicoechea",
    "district": "Ipis",
    "postal_code": "10805"
  },
  {
    "province": "San José",
    "canton": "Goicoechea",
    "district": "Mata de Plátano",
    "postal_code": "10804"
  },
  {
    "province": "San José",
    "canton": "Goicoechea",
    "district": "Purral",
    "postal_code": "10807"
  },
  {
    "province": "San José",
    "canton": "Goicoechea",
    "district": "Rancho Redondo",
    "postal_code": "10806"
  },
  {
    "province": "San José",
    "canton": "Goicoechea",
    "district": "San Francisco",
    "postal_code": "10802"
  },
  {
    "province": "San José",
    "canton": "León Cortés",
    "district": "Llano Bonito",
    "postal_code": "12003"
  },
  {
    "province": "San José",
    "canton": "León Cortés",
    "district": "San Andrés",
    "postal_code": "12002"
  },
  {
    "province": "San José",
    "canton": "León Cortés",
    "district": "San Antonio",
    "postal_code": "12006"
  },
  {
    "province": "San José",
    "canton": "León Cortés",
    "district": "San Isidro",
    "postal_code": "12004"
  },
  {
    "province": "San José",
    "canton": "León Cortés",
    "district": "San Pablo",
    "postal_code": "12001"
  },
  {
    "province": "San José",
    "canton": "León Cortés",
    "district": "Santa Cruz",
    "postal_code": "12005"
  },
  {
    "province": "San José",
    "canton": "Montes de Oca",
    "district": "Mercedes",
    "postal_code": "11503"
  },
  {
    "province": "San José",
    "canton": "Montes de Oca",
    "district": "Sabanilla",
    "postal_code": "11502"
  },
  {
    "province": "San José",
    "canton": "Montes de Oca",
    "district": "San Pedro",
    "postal_code": "11501"
  },
  {
    "province": "San José",
    "canton": "Montes de Oca",
    "district": "San Rafael",
    "postal_code": "11504"
  },
  {
    "province": "San José",
    "canton": "Mora",
    "district": "Colón",
    "postal_code": "10701"
  },
  {
    "province": "San José",
    "canton": "Mora",
    "district": "Guayabo",
    "postal_code": "10702"
  },
  {
    "province": "San José",
    "canton": "Mora",
    "district": "Picagres",
    "postal_code": "10705"
  },
  {
    "province": "San José",
    "canton": "Mora",
    "district": "Piedras Negras",
    "postal_code": "10704"
  },
  {
    "province": "San José",
    "canton": "Mora",
    "district": "Tabarcia",
    "postal_code": "10703"
  },
  {
    "province": "San José",
    "canton": "Moravia",
    "district": "San Jerónimo",
    "postal_code": "11402"
  },
  {
    "province": "San José",
    "canton": "Moravia",
    "district": "San Vicente",
    "postal_code": "11401"
  },
  {
    "province": "San José",
    "canton": "Moravia",
    "district": "Trinidad",
    "postal_code": "11403"
  },
  {
    "province": "San José",
    "canton": "Puriscal",
    "district": "Barbacoas",
    "postal_code": "10403"
  },
  {
    "province": "San José",
    "canton": "Puriscal",
    "district": "Candelaria",
    "postal_code": "10406"
  },
  {
    "province": "San José",
    "canton": "Puriscal",
    "district": "Chires",
    "postal_code": "10409"
  },
  {
    "province": "San José",
    "canton": "Puriscal",
    "district": "Desamparaditos",
    "postal_code": "10407"
  },
  {
    "province": "San José",
    "canton": "Puriscal",
    "district": "Grifo Alto",
    "postal_code": "10404"
  },
  {
    "province": "San José",
    "canton": "Puriscal",
    "district": "Mercedes Sur",
    "postal_code": "10402"
  },
  {
    "province": "San José",
    "canton": "Puriscal",
    "district": "San Antonio",
    "postal_code": "10408"
  },
  {
    "province": "San José",
    "canton": "Puriscal",
    "district": "San Rafael",
    "postal_code": "10405"
  },
  {
    "province": "San José",
    "canton": "Puriscal",
    "district": "Santiago",
    "postal_code": "10401"
  },
  {
    "province": "San José",
    "canton": "Pérez Zeledón",
    "district": "Barú",
    "postal_code": "11909"
  },
  {
    "province": "San José",
    "canton": "Pérez Zeledón",
    "district": "Cajón",
    "postal_code": "11908"
  },
  {
    "province": "San José",
    "canton": "Pérez Zeledón",
    "district": "Daniel Flores",
    "postal_code": "11903"
  },
  {
    "province": "San José",
    "canton": "Pérez Zeledón",
    "district": "General",
    "postal_code": "11902"
  },
  {
    "province": "San José",
    "canton": "Pérez Zeledón",
    "district": "Paramo",
    "postal_code": "11911"
  },
  {
    "province": "San José",
    "canton": "Pérez Zeledón",
    "district": "Pejibaye",
    "postal_code": "11907"
  },
  {
    "province": "San José",
    "canton": "Pérez Zeledón",
    "district": "Platanares",
    "postal_code": "11906"
  },
  {
    "province": "San José",
    "canton": "Pérez Zeledón",
    "district": "Rivas",
    "postal_code": "11904"
  },
  {
    "province": "San José",
    "canton": "Pérez Zeledón",
    "district": "Río Nuevo",
    "postal_code": "11910"
  },
  {
    "province": "San José",
    "canton": "Pérez Zeledón",
    "district": "San Isidro del General",
    "postal_code": "11901"
  },
  {
    "province": "San José",
    "canton": "Pérez Zeledón",
    "district": "San Pedro",
    "postal_code": "11905"
  },
  {
    "province": "San José",
    "canton": "San José",
    "district": "Carmen",
    "postal_code": "10101"
  },
  {
    "province": "San José",
    "canton": "San José",
    "district": "Catedral",
    "postal_code": "10104"
  },
  {
    "province": "San José",
    "canton": "San José",
    "district": "Hatillo",
    "postal_code": "10110"
  },
  {
    "province": "San José",
    "canton": "San José",
    "district": "Hospital",
    "postal_code": "10103"
  },
  {
    "province": "San José",
    "canton": "San José",
    "district": "Mata Redonda",
    "postal_code": "10108"
  },
  {
    "province": "San José",
    "canton": "San José",
    "district": "Merced",
    "postal_code": "10102"
  },
  {
    "province": "San José",
    "canton": "San José",
    "district": "Pavas",
    "postal_code": "10109"
  },
  {
    "province": "San José",
    "canton": "San José",
    "district": "San Francisco de Dos Ríos",
    "postal_code": "10106"
  },
  {
    "province": "San José",
    "canton": "San José",
    "district": "San Sebastián",
    "postal_code": "10111"
  },
  {
    "province": "San José",
    "canton": "San José",
    "district": "Uruca",
    "postal_code": "10107"
  },
  {
    "province": "San José",
    "canton": "San José",
    "district": "Zapote",
    "postal_code": "10105"
  },
  {
    "province": "San José",
    "canton": "Santa Ana",
    "district": "Brasil",
    "postal_code": "10906"
  },
  {
    "province": "San José",
    "canton": "Santa Ana",
    "district": "Piedades",
    "postal_code": "10905"
  },
  {
    "province": "San José",
    "canton": "Santa Ana",
    "district": "Pozos",
    "postal_code": "10903"
  },
  {
    "province": "San José",
    "canton": "Santa Ana",
    "district": "Salitral",
    "postal_code": "10902"
  },
  {
    "province": "San José",
    "canton": "Santa Ana",
    "district": "Santa Ana",
    "postal_code": "10901"
  },
  {
    "province": "San José",
    "canton": "Santa Ana",
    "district": "Uruca",
    "postal_code": "10904"
  },
  {
    "province": "San José",
    "canton": "Tarrazú",
    "district": "San Carlos",
    "postal_code": "10503"
  },
  {
    "province": "San José",
    "canton": "Tarrazú",
    "district": "San Lorenzo",
    "postal_code": "10502"
  },
  {
    "province": "San José",
    "canton": "Tarrazú",
    "district": "San Marcos",
    "postal_code": "10501"
  },
  {
    "province": "San José",
    "canton": "Tibás",
    "district": "Anselmo Llorente",
    "postal_code": "11303"
  },
  {
    "province": "San José",
    "canton": "Tibás",
    "district": "Cinco esquinas",
    "postal_code": "11302"
  },
  {
    "province": "San José",
    "canton": "Tibás",
    "district": "Colima",
    "postal_code": "11305"
  },
  {
    "province": "San José",
    "canton": "Tibás",
    "district": "León XIII",
    "postal_code": "11304"
  },
  {
    "province": "San José",
    "canton": "Tibás",
    "district": "San Juan",
    "postal_code": "11301"
  },
  {
    "province": "San José",
    "canton": "Turrubares",
    "district": "Carara",
    "postal_code": "11605"
  },
  {
    "province": "San José",
    "canton": "Turrubares",
    "district": "San Juan de Mata",
    "postal_code": "11603"
  },
  {
    "province": "San José",
    "canton": "Turrubares",
    "district": "San Luis",
    "postal_code": "11604"
  },
  {
    "province": "San José",
    "canton": "Turrubares",
    "district": "San Pablo",
    "postal_code": "11601"
  },
  {
    "province": "San José",
    "canton": "Turrubares",
    "district": "San Pedro",
    "postal_code": "11602"
  },
  {
    "province": "San José",
    "canton": "Vázquez de Coronado",
    "district": "Cascajal",
    "postal_code": "11105"
  },
  {
    "province": "San José",
    "canton": "Vázquez de Coronado",
    "district": "Dulce Nombre de Jesús",
    "postal_code": "11103"
  },
  {
    "province": "San José",
    "canton": "Vázquez de Coronado",
    "district": "Patalillo",
    "postal_code": "11104"
  },
  {
    "province": "San José",
    "canton": "Vázquez de Coronado",
    "district": "San Isidro",
    "postal_code": "11101"
  },
  {
    "province": "San José",
    "canton": "Vázquez de Coronado",
    "district": "San Rafael",
    "postal_code": "11102"
  }
]